{
  "type": "FeatureCollection",
  "features": [
    {
      "type": "Feature",
      "properties": {
        "norad_id": 65731,
        "name": "1998-067XK",
        "group": "stations",
        "lat": -38.242204676003176,
        "lon": -9.81081569134915,
        "alt_km": 371.2421285180253,
        "timestamp": "2025-12-13T20:38:49.758610+00:00",
        "meta_object_name": "1998-067XK",
        "meta_object_id": "1998-067XK",
        "meta_epoch": "2025-12-13T02:48:43.499232",
        "meta_mean_motion": 15.65831493,
        "meta_eccentricity": 0.00050246,
        "meta_inclination": 51.6274,
        "meta_ra_of_asc_node": 135.3174,
        "meta_arg_of_pericenter": 248.4122,
        "meta_mean_anomaly": 111.6339,
        "meta_ephemeris_type": 0,
        "meta_classification_type": "U",
        "meta_norad_cat_id": 65731,
        "meta_element_set_no": 999,
        "meta_rev_at_epoch": 1320,
        "meta_bstar": 0.0012217358,
        "meta_mean_motion_dot": 0.00128039,
        "meta_mean_motion_ddot": 0,
        "tle_line1": "1 65731U 98067XK  25347.11717013  .00128039  00000+0  12217-2 0  9991",
        "tle_line2": "2 65731  51.6274 135.3174 0005024 248.4122 111.6339 15.65831493 13202"
      },
      "geometry": {
        "type": "Point",
        "coordinates": [
          -9.81081569134915,
          -38.242204676003176
        ]
      }
    },
    {
      "type": "Feature",
      "properties": {
        "norad_id": 65732,
        "name": "RSP-03",
        "group": "stations",
        "lat": -27.66090182120171,
        "lon": -24.642457080438987,
        "alt_km": 362.3159376667636,
        "timestamp": "2025-12-13T20:38:49.758620+00:00",
        "meta_object_name": "RSP-03",
        "meta_object_id": "1998-067XL",
        "meta_epoch": "2025-12-12T19:16:04.645920",
        "meta_mean_motion": 15.68628297,
        "meta_eccentricity": 0.00057622,
        "meta_inclination": 51.6253,
        "meta_ra_of_asc_node": 136.2083,
        "meta_arg_of_pericenter": 249.7501,
        "meta_mean_anomaly": 110.2876,
        "meta_ephemeris_type": 0,
        "meta_classification_type": "U",
        "meta_norad_cat_id": 65732,
        "meta_element_set_no": 999,
        "meta_rev_at_epoch": 1317,
        "meta_bstar": 0.0013717805,
        "meta_mean_motion_dot": 0.00161855,
        "meta_mean_motion_ddot": 0,
        "tle_line1": "1 65732U 98067XL  25346.80283155  .00161855  00000+0  13718-2 0  9992",
        "tle_line2": "2 65732  51.6253 136.2083 0005762 249.7501 110.2876 15.68628297 13179"
      },
      "geometry": {
        "type": "Point",
        "coordinates": [
          -24.642457080438987,
          -27.66090182120171
        ]
      }
    },
    {
      "type": "Feature",
      "properties": {
        "norad_id": 65733,
        "name": "GHS-01",
        "group": "stations",
        "lat": 16.082741553987713,
        "lon": -63.772668172592255,
        "alt_km": 344.6797358575441,
        "timestamp": "2025-12-13T20:38:49.758640+00:00",
        "meta_object_name": "GHS-01",
        "meta_object_id": "1998-067XM",
        "meta_epoch": "2025-12-12T16:33:54.337536",
        "meta_mean_motion": 15.74787819,
        "meta_eccentricity": 0.00071608,
        "meta_inclination": 51.6272,
        "meta_ra_of_asc_node": 135.4559,
        "meta_arg_of_pericenter": 280.4692,
        "meta_mean_anomaly": 79.55,
        "meta_ephemeris_type": 0,
        "meta_classification_type": "U",
        "meta_norad_cat_id": 65733,
        "meta_element_set_no": 999,
        "meta_rev_at_epoch": 1317,
        "meta_bstar": 0.0017046622,
        "meta_mean_motion_dot": 0.00264493,
        "meta_mean_motion_ddot": 0,
        "tle_line1": "1 65733U 98067XM  25346.69021224  .00264493  00000+0  17047-2 0  9998",
        "tle_line2": "2 65733  51.6272 135.4559 0007160 280.4692  79.5500 15.74787819 13171"
      },
      "geometry": {
        "type": "Point",
        "coordinates": [
          -63.772668172592255,
          16.082741553987713
        ]
      }
    },
    {
      "type": "Feature",
      "properties": {
        "norad_id": 65941,
        "name": "YOTSUBA-KULOVER",
        "group": "stations",
        "lat": -24.886908094102576,
        "lon": 112.77615106706672,
        "alt_km": 391.7490057472778,
        "timestamp": "2025-12-13T20:38:49.758651+00:00",
        "meta_object_name": "YOTSUBA-KULOVER",
        "meta_object_id": "1998-067XN",
        "meta_epoch": "2025-12-12T17:06:14.736384",
        "meta_mean_motion": 15.59447843,
        "meta_eccentricity": 0.00014047,
        "meta_inclination": 51.6283,
        "meta_ra_of_asc_node": 140.1142,
        "meta_arg_of_pericenter": 246.8378,
        "meta_mean_anomaly": 113.2466,
        "meta_ephemeris_type": 0,
        "meta_classification_type": "U",
        "meta_norad_cat_id": 65941,
        "meta_element_set_no": 999,
        "meta_rev_at_epoch": 985,
        "meta_bstar": 0.0010939393,
        "meta_mean_motion_dot": 0.0008876,
        "meta_mean_motion_ddot": 0,
        "tle_line1": "1 65941U 98067XN  25346.71267056  .00088760  00000+0  10939-2 0  9991",
        "tle_line2": "2 65941  51.6283 140.1142 0001404 246.8378 113.2466 15.59447843  9857"
      },
      "geometry": {
        "type": "Point",
        "coordinates": [
          112.77615106706672,
          -24.886908094102576
        ]
      }
    },
    {
      "type": "Feature",
      "properties": {
        "norad_id": 65942,
        "name": "BOTAN",
        "group": "stations",
        "lat": -36.794114607954974,
        "lon": 97.28577167504953,
        "alt_km": 381.72269474880886,
        "timestamp": "2025-12-13T20:38:49.758661+00:00",
        "meta_object_name": "BOTAN",
        "meta_object_id": "1998-067XP",
        "meta_epoch": "2025-12-12T20:18:31.406976",
        "meta_mean_motion": 15.62906067,
        "meta_eccentricity": 0.00031064,
        "meta_inclination": 51.6286,
        "meta_ra_of_asc_node": 138.7562,
        "meta_arg_of_pericenter": 238.0921,
        "meta_mean_anomaly": 121.9771,
        "meta_ephemeris_type": 0,
        "meta_classification_type": "U",
        "meta_norad_cat_id": 65942,
        "meta_element_set_no": 999,
        "meta_rev_at_epoch": 988,
        "meta_bstar": 0.0014970071,
        "meta_mean_motion_dot": 0.00139962,
        "meta_mean_motion_ddot": 0,
        "tle_line1": "1 65942U 98067XP  25346.84619684  .00139962  00000+0  14970-2 0  9994",
        "tle_line2": "2 65942  51.6286 138.7562 0003106 238.0921 121.9771 15.62906067  9888"
      },
      "geometry": {
        "type": "Point",
        "coordinates": [
          97.28577167504953,
          -36.794114607954974
        ]
      }
    },
    {
      "type": "Feature",
      "properties": {
        "norad_id": 65943,
        "name": "E-KAGAKU-1",
        "group": "stations",
        "lat": -24.479236017651694,
        "lon": 113.18619628974373,
        "alt_km": 393.57741979398725,
        "timestamp": "2025-12-13T20:38:49.758672+00:00",
        "meta_object_name": "E-KAGAKU-1",
        "meta_object_id": "1998-067XQ",
        "meta_epoch": "2025-12-10T06:39:08.237952",
        "meta_mean_motion": 15.5900432,
        "meta_eccentricity": 0.00052507,
        "meta_inclination": 51.6298,
        "meta_ra_of_asc_node": 152.3458,
        "meta_arg_of_pericenter": 191.2269,
        "meta_mean_anomaly": 168.8608,
        "meta_ephemeris_type": 0,
        "meta_classification_type": "U",
        "meta_norad_cat_id": 65943,
        "meta_element_set_no": 999,
        "meta_rev_at_epoch": 947,
        "meta_bstar": 0.0012588803,
        "meta_mean_motion_dot": 0.00100705,
        "meta_mean_motion_ddot": 0,
        "tle_line1": "1 65943U 98067XQ  25344.27717868  .00100705  00000+0  12589-2 0  9990",
        "tle_line2": "2 65943  51.6298 152.3458 0005250 191.2269 168.8608 15.59004320  9476"
      },
      "geometry": {
        "type": "Point",
        "coordinates": [
          113.18619628974373,
          -24.479236017651694
        ]
      }
    },
    {
      "type": "Feature",
      "properties": {
        "norad_id": 66052,
        "name": "HRC MONOBLOCK CAMERA",
        "group": "stations",
        "lat": -47.536891337404164,
        "lon": 75.94546707685059,
        "alt_km": 409.20003578030446,
        "timestamp": "2025-12-13T20:38:49.758683+00:00",
        "meta_object_name": "HRC MONOBLOCK CAMERA",
        "meta_object_id": "1998-067XR",
        "meta_epoch": "2025-12-13T07:03:37.221984",
        "meta_mean_motion": 15.54192892,
        "meta_eccentricity": 0.00031753,
        "meta_inclination": 51.6292,
        "meta_ra_of_asc_node": 138.7434,
        "meta_arg_of_pericenter": 186.7911,
        "meta_mean_anomaly": 173.3037,
        "meta_ephemeris_type": 0,
        "meta_classification_type": "U",
        "meta_norad_cat_id": 66052,
        "meta_element_set_no": 999,
        "meta_rev_at_epoch": 892,
        "meta_bstar": 0.00087487655,
        "meta_mean_motion_dot": 0.00058002,
        "meta_mean_motion_ddot": 0,
        "tle_line1": "1 66052U 98067XR  25347.29418081  .00058002  00000+0  87488-3 0  9995",
        "tle_line2": "2 66052  51.6292 138.7434 0003175 186.7911 173.3037 15.54192892  8924"
      },
      "geometry": {
        "type": "Point",
        "coordinates": [
          75.94546707685059,
          -47.536891337404164
        ]
      }
    }
  ]
}